NORAD_CAT_ID,OBJECT_NAME,OBJECT_TYPE,EPOCH,MEAN_MOTION,ECCENTRICITY,INCLINATION,RA_OF_ASC_NODE,ARG_OF_PERICENTER,MEAN_ANOMALY,BSTAR,MEAN_MOTION_DOT,MEAN_MOTION_DDOT,TLE_LINE0,TLE_LINE1,TLE_LINE2,SEMIMAJOR_AXIS,PERIOD,APOGEE,PERIGEE,DECAYED
53827.0,STARLINK-4764,PAYLOAD,2022-10-04 06:00:00,15.73214991,0.0001422,53.2146,183.5405,43.337,48.4785,-3.6643e-05,-5.763e-05,0.0,0 STARLINK-4764,1 53827U 22114K   22277.25001157 -.00005763  00000-0 -36643-4 0  9995,2 53827  53.2146 183.5405 0001422  43.3370  48.4785 15.73214991  2979,6727.852,91.532,350.6740000000001,348.761,0.0
53827.0,STARLINK-4764,PAYLOAD,2022-10-04 14:00:01,15.7319163,0.0001244,53.215,181.8889,51.9704,128.7967,-0.00012016,-0.00017442,0.0,0 STARLINK-4764,1 53827U 22114K   22277.58334491 -.00017442  00000-0 -12016-3 0  9995,2 53827  53.2150 181.8889 0001244  51.9704 128.7967 15.73191630  1303,6727.919,91.534,350.621,348.94699999999995,0.0
53827.0,STARLINK-4764,PAYLOAD,2022-10-04 22:00:00,15.73144832,0.0001409,53.2154,180.2405,51.504,218.1463,0.00016686,0.00022806,0.0,0 STARLINK-4764,1 53827U 22114K   22277.91667824  .00022806  00000-0  16686-3 0  9996,2 53827  53.2154 180.2405 0001409  51.5040 218.1463 15.73144832  3079,6728.052,91.536,350.865,348.969,0.0
53827.0,STARLINK-4764,PAYLOAD,2022-10-05 14:00:01,15.73113752,0.0001351,53.2151,176.9406,59.0912,28.4021,0.00048625,0.00067923,0.0,0 STARLINK-4764,1 53827U 22114K   22278.58335648  .00067923  00000-0  48625-3 0  9993,2 53827  53.2151 176.9406 0001351  59.0912  28.4021 15.73113752  3187,6728.141,91.538,350.915,349.097,0.0
53827.0,STARLINK-4764,PAYLOAD,2022-10-05 22:00:00,15.73137186,0.0001527,53.2153,175.2926,58.8225,117.4663,0.00030639,0.00042482,0.0,0 STARLINK-4764,1 53827U 22114K   22278.91667824  .00042482  00000-0  30639-3 0  9993,2 53827  53.2153 175.2926 0001527  58.8225 117.4663 15.73137186  1307,6728.074000000001,91.537,350.967,348.912,0.0
53827.0,STARLINK-4764,PAYLOAD,2022-10-06 06:00:00,15.73265292,0.0001315,53.2151,173.6436,46.7393,218.5089,-0.00033381,-0.00047336,0.0,0 STARLINK-4764,1 53827U 22114K   22279.25001157 -.00047336  00000-0 -33381-3 0  9994,2 53827  53.2151 173.6436 0001315  46.7393 218.5089 15.73265292  3284,6727.709,91.529,350.459,348.689,0.0
53827.0,STARLINK-4764,PAYLOAD,2022-10-06 14:00:01,15.73202373,0.0001255,53.2155,171.99200000000005,59.382,294.8635,0.0004198999999999,0.00058729,0.0,0 STARLINK-4764,1 53827U 22114K   22279.58334491  .00058729  00000-0  41990-3 0  9991,2 53827  53.2155 171.9920 0001255  59.3820 294.8635 15.73202373  1301,6727.888000000001,91.533,350.598,348.909,0.0
53827.0,STARLINK-4764,PAYLOAD,2022-10-06 22:42:55,15.73221841,0.000152,53.2158,170.1971,57.6807,194.2982,-0.00032895,-0.00046575,0.0,0 STARLINK-4764,1 53827U 22114K   22279.94646991 -.00046575  00000-0 -32895-3 0  9994,2 53827  53.2158 170.1971 0001520  57.6807 194.2982 15.73221841  1301,6727.833000000001,91.532,350.721,348.675,0.0
53827.0,STARLINK-4764,PAYLOAD,2022-10-07 14:00:01,15.73095775,0.0001449,53.2166,167.046,57.1124,203.8954,0.0010248,0.00145063,0.0,0 STARLINK-4764,1 53827U 22114K   22280.58334491  .00145063  00000-0  10248-2 0  9992,2 53827  53.2166 167.0460 0001449  57.1124 203.8954 15.73095775  3498,6728.191999999999,91.539,351.032,349.082,0.0
53827.0,STARLINK-4764,PAYLOAD,2022-10-07 22:00:00,15.73214722,0.0001279,53.2153,165.3959,57.3694,292.6042,-0.00026183,-0.00037227,0.0,0 STARLINK-4764,1 53827U 22114K   22280.91667824 -.00037227  00000-0 -26183-3 0  9998,2 53827  53.2153 165.3959 0001279  57.3694 292.6042 15.73214722  3548,6727.853,91.532,350.579,348.858,0.0
53827.0,STARLINK-4764,PAYLOAD,2022-10-08 14:00:01,15.73105292,0.0001185,53.2153,162.0953,64.3308,103.4698,0.00077814,0.00109575,0.0,0 STARLINK-4764,1 53827U 22114K   22281.58334491  .00109575  00000-0  77814-3 0  9994,2 53827  53.2153 162.0953 0001185  64.3308 103.4698 15.73105292  1301,6728.165,91.539,350.827,349.233,0.0
53827.0,STARLINK-4764,PAYLOAD,2022-10-08 22:00:00,15.73275001,0.0001247,53.2166,160.4492,64.4369,192.2702,-0.0013844,-0.00191173,0.0,0 STARLINK-4764,1 53827U 22114K   22281.91667824 -.00191173  00000-0 -13844-2 0  9999,2 53827  53.2166 160.4492 0001247  64.4369 192.2702 15.73275001  3706,6727.681,91.529,350.385,348.707,0.0
53827.0,STARLINK-4764,PAYLOAD,2022-10-09 06:00:00,15.73227774,0.0001267,53.215,158.798,51.6373,294.0114,-0.00012752,-0.00018498,0.0,0 STARLINK-4764,1 53827U 22114K   22282.25001157 -.00018498  00000-0 -12752-3 0  9994,2 53827  53.2150 158.7980 0001267  51.6373 294.0114 15.73227774  3753,6727.816,91.532,350.533,348.829,0.0
53827.0,STARLINK-4764,PAYLOAD,2022-10-09 14:00:01,15.73201311,0.0001286,53.215,157.1468,67.3821,7.2273,0.00028792,0.00039982,0.0,0 STARLINK-4764,1 53827U 22114K   22282.58334491  .00039982  00000-0  28792-3 0  9990,2 53827  53.2150 157.1468 0001286  67.3821   7.2273 15.73201311  1308,6727.891,91.533,350.622,348.891,0.0
53827.0,STARLINK-4764,PAYLOAD,2022-10-09 22:00:00,15.73237917,0.0001424,53.2149,155.4994,61.1544,102.4032,-0.00040374,-0.00056992,0.0,0 STARLINK-4764,1 53827U 22114K   22282.91667824 -.00056992  00000-0 -40374-3 0  9998,2 53827  53.2149 155.4994 0001424  61.1544 102.4032 15.73237917  1301,6727.7869999999975,91.531,350.61,348.694,0.0
53827.0,STARLINK-4764,PAYLOAD,2022-10-10 08:00:01,15.7324226,0.0001391,53.216,153.4383,58.7166,306.0173,-0.0014418,-0.00198625,0.0,0 STARLINK-4764,1 53827U 22114K   22283.33334491 -.00198625  00000-0 -14418-2 0  9995,2 53827  53.2160 153.4383 0001391  58.7166 306.0173 15.73242260  3924,6727.775,91.531,350.576,348.704,0.0
53827.0,STARLINK-4764,PAYLOAD,2022-10-10 14:00:01,15.73224775,0.0001139999999999,53.2149,152.1982,69.959,271.5046,0.00018324,0.00025201,0.0,0 STARLINK-4764,1 53827U 22114K   22283.58334491  .00025201  00000-0  18324-3 0  9990,2 53827  53.2149 152.1982 0001140  69.9590 271.5046 15.73224775  1305,6727.825,91.532,350.457,348.923,0.0
53827.0,STARLINK-4764,PAYLOAD,2022-10-10 22:00:01,15.733147400000002,0.0001093,53.2164,150.5522,59.5926,10.9006,-0.0032256,-0.00432891,0.0,0 STARLINK-4764,1 53827U 22114K   22283.91668981 -.00432891  00000-0 -32256-2 0  9999,2 53827  53.2164 150.5522 0001093  59.5926  10.9006 15.73314740  4013,6727.568,91.527,350.168,348.6980000000001,0.0
53827.0,STARLINK-4764,PAYLOAD,2022-10-11 06:00:00,15.73196051,0.0001169,53.2148,148.9007,51.9456,107.3551,-0.00057405,-0.00080403,0.0,0 STARLINK-4764,1 53827U 22114K   22284.25001157 -.00080403  00000-0 -57405-3 0  9995,2 53827  53.2148 148.9007 0001169  51.9456 107.3551 15.73196051  4077,6727.906,91.533,350.55800000000005,348.985,0.0
53827.0,STARLINK-4764,PAYLOAD,2022-10-11 14:00:01,15.73172474,0.0001678,53.2169,147.2521,68.392,179.771,0.00036709,0.00051153,0.0,0 STARLINK-4764,1 53827U 22114K   22284.58334491  .00051153  00000-0  36709-3 0  9993,2 53827  53.2169 147.2521 0001678  68.3920 179.7710 15.73172474  4125,6727.974,91.535,350.968,348.71,0.0
53827.0,STARLINK-4764,PAYLOAD,2022-10-11 22:00:00,15.73172541,0.0001353,53.2138,145.6022,60.157,276.8297,0.00047865,0.00067014,0.0,0 STARLINK-4764,1 53827U 22114K   22284.91667824  .00067014  00000-0  47865-3 0  9997,2 53827  53.2138 145.6022 0001353  60.1570 276.8297 15.73172541  4179,6727.973000000001,91.535,350.749,348.92800000000005,0.0
53827.0,STARLINK-4764,PAYLOAD,2022-10-12 06:00:00,15.7329354,0.0001274999999999,53.2151,143.9538,53.5218,12.4212,-0.00068098,-0.00095494,0.0,0 STARLINK-4764,1 53827U 22114K   22285.25001157 -.00095494  00000-0 -68098-3 0  9992,2 53827  53.2151 143.9538 0001275  53.5218  12.4212 15.73293540  4225,6727.629,91.528,350.351,348.636,0.0
53827.0,STARLINK-4764,PAYLOAD,2022-10-12 14:00:01,15.73207644,0.0001091,53.2165,142.3033,56.3301,98.6192,-3.8444e-05,-6.013e-05,0.0,0 STARLINK-4764,1 53827U 22114K   22285.58334491 -.00006013  00000-0 -38444-4 0  9990,2 53827  53.2165 142.3033 0001091  56.3301  98.6192 15.73207644  1302,6727.873000000001,91.533,350.472,349.004,0.0
53827.0,STARLINK-4764,PAYLOAD,2022-10-12 22:00:00,15.73204273,0.0001122,53.2175,140.6565,47.2354,196.6482,-1.5222e-06,-8.33e-06,0.0,0 STARLINK-4764,1 53827U 22114K   22285.91667824 -.00000833  00000-0 -15222-5 0  9990,2 53827  53.2175 140.6565 0001122  47.2354 196.6482 15.73204273  4338,6727.8830000000025,91.533,350.50300000000016,348.99300000000005,0.0
53827.0,STARLINK-4764,PAYLOAD,2022-10-13 14:00:01,15.73395545,0.0001205,53.2165,137.3546,57.6559,3.9892,-0.0019779,-0.00271695,0.0,0 STARLINK-4764,1 53827U 22114K   22286.58334491 -.00271695  00000-0 -19779-2 0  9999,2 53827  53.2165 137.3546 0001205  57.6559   3.9892 15.73395545  1305,6727.3380000000025,91.522,350.01300000000015,348.392,0.0
53827.0,STARLINK-4764,PAYLOAD,2022-10-13 22:00:00,15.73228022,0.0001322,53.2171,135.7074,55.9783,94.6972,-0.00027514,-0.00039101,0.0,0 STARLINK-4764,1 53827U 22114K   22286.91667824 -.00039101  00000-0 -27514-3 0  9996,2 53827  53.2171 135.7074 0001322  55.9783  94.6972 15.73228022  1301,6727.815,91.532,350.57,348.791,0.0
53827.0,STARLINK-4764,PAYLOAD,2022-10-14 08:00:01,15.73269372,0.0001123,53.2155,133.6425,57.135,294.9949,-0.0032408999999999,-0.00434038,0.0,0 STARLINK-4764,1 53827U 22114K   22287.33335648 -.00434038  00000-0 -32409-2 0  9995,2 53827  53.2155 133.6425 0001123  57.1350 294.9949 15.73269372  4555,6727.696999999999,91.529,350.3180000000001,348.807,0.0
53827.0,STARLINK-4764,PAYLOAD,2022-10-14 14:00:01,15.72914997,0.0001252999999999,53.2168,132.4057,57.9638,270.73900000000003,0.0032527,0.00476963,0.0,0 STARLINK-4764,1 53827U 22114K   22287.58334491  .00476963  00000-0  32527-2 0  9999,2 53827  53.2168 132.4057 0001253  57.9638 270.7390 15.72914997  1309,6728.708000000001,91.55,351.416,349.73,0.0
53827.0,STARLINK-4764,PAYLOAD,2022-10-14 16:00:00,15.73180376,0.0001307,53.2172,131.9945,65.517,15.2819,0.00030176,0.00041906,0.0,0 STARLINK-4764,1 53827U 22114K   22287.66667824  .00041906  00000-0  30176-3 0  9991,2 53827  53.2172 131.9945 0001307  65.5170  15.2819 15.73180376  4612,6727.951,91.534,350.695,348.93699999999984,0.0
